{
    "links": {
        "self": "http://www.neowsapp.com/rest/v1/neo/3774562?api_key=iIulBulltgU6a56xZRHN4H3l9WmuAYTsLGpBGhQ2"
    },
    "id": "3774562",
    "neo_reference_id": "3774562",
    "name": "(2017 JY1)",
    "designation": "2017 JY1",
    "nasa_jpl_url": "http://ssd.jpl.nasa.gov/sbdb.cgi?sstr=3774562",
    "absolute_magnitude_h": 25.3,
    "estimated_diameter": {
        "kilometers": {
            "estimated_diameter_min": 0.0231502122,
            "estimated_diameter_max": 0.0517654482
        },
        "meters": {
            "estimated_diameter_min": 23.150212221,
            "estimated_diameter_max": 51.7654482198
        },
        "miles": {
            "estimated_diameter_min": 0.0143848705,
            "estimated_diameter_max": 0.0321655483
        },
        "feet": {
            "estimated_diameter_min": 75.9521422633,
            "estimated_diameter_max": 169.8341531374
        }
    },
    "is_potentially_hazardous_asteroid": false,
    "close_approach_data": [
        {
            "close_approach_date": "2009-07-01",
            "close_approach_date_full": "2009-Jul-01 16:13",
            "epoch_date_close_approach": 1246464780000,
            "relative_velocity": {
                "kilometers_per_second": "20.1085835928",
                "kilometers_per_hour": "72390.9009342247",
                "miles_per_hour": "44980.8906388242"
            },
            "miss_distance": {
                "astronomical": "0.4813156466",
                "lunar": "187.2317865274",
                "kilometers": "72003795.529032742",
                "miles": "44741083.8701141596"
            },
            "orbiting_body": "Earth"
        },
        {
            "close_approach_date": "2017-05-09",
            "close_approach_date_full": "2017-May-09 11:22",
            "epoch_date_close_approach": 1494328920000,
            "relative_velocity": {
                "kilometers_per_second": "8.132079363",
                "kilometers_per_hour": "29275.4857069692",
                "miles_per_hour": "18190.6483271998"
            },
            "miss_distance": {
                "astronomical": "0.0228303022",
                "lunar": "8.8809875558",
                "kilometers": "3415364.580576314",
                "miles": "2122209.1422245732"
            },
            "orbiting_body": "Earth"
        },
        {
            "close_approach_date": "2025-03-19",
            "close_approach_date_full": "2025-Mar-19 10:15",
            "epoch_date_close_approach": 1742379300000,
            "relative_velocity": {
                "kilometers_per_second": "19.0327040029",
                "kilometers_per_hour": "68517.7344105502",
                "miles_per_hour": "42574.2555841555"
            },
            "miss_distance": {
                "astronomical": "0.445462864",
                "lunar": "173.285054096",
                "kilometers": "66640295.61849968",
                "miles": "41408359.566188384"
            },
            "orbiting_body": "Earth"
        }
    ],
    "orbital_data": {
        "orbit_id": "3",
        "orbit_determination_date": "2017-05-22 06:19:36",
        "first_observation_date": "2017-05-04",
        "last_observation_date": "2017-05-21",
        "data_arc_in_days": 17,
        "observations_used": 36,
        "orbit_uncertainty": "7",
        "minimum_orbit_intersection": ".0228934",
        "jupiter_tisserand_invariant": "3.784",
        "epoch_osculation": "2459000.5",
        "eccentricity": ".4596754106330858",
        "semi_major_axis": "1.910052551178532",
        "inclination": "9.849402276237981",
        "ascending_node_longitude": "48.87457685277879",
        "orbital_period": "964.1983880018679",
        "perihelion_distance": "1.032048360384767",
        "perihelion_argument": "176.4790407463142",
        "aphelion_distance": "2.788056741972297",
        "perihelion_time": "2458844.417842359867",
        "mean_anomaly": "58.27594969007452",
        "mean_motion": ".3733671456825777",
        "equinox": "J2000",
        "orbit_class": {
            "orbit_class_type": "AMO",
            "orbit_class_description": "Near-Earth asteroid orbits similar to that of 1221 Amor",
            "orbit_class_range": "1.017 AU < q (perihelion) < 1.3 AU"
        }
    },
    "is_sentry_object": false
}